CYGFM02                 
1 41886U 16078C   25106.51446332  .00022649  00000+0  52342-3 0  9992
2 41886  34.9433 145.4654 0010192 126.9640 233.2014 15.41509310462876
CYGFM01                 
1 41887U 16078D   25106.58441699  .00021149  00000+0  52565-3 0  9992
2 41887  34.9432 167.9037 0008659  97.2531 262.9172 15.39342095462588
CYGFM08                 
1 41888U 16078E   25106.53585513  .00021587  00000+0  52163-3 0  9992
2 41888  34.9455 153.4914 0010818 121.9679 238.2093 15.40169467462788
CYGFM07                 
1 41890U 16078G   25106.49869872  .00022872  00000+0  54358-3 0  9999
2 41890  34.9470 144.0424 0009138 141.5067 218.6306 15.40678732462781
CYGFM03                 
1 41891U 16078H   25106.49645313  .00022437  00000+0  53704-3 0  9993
2 41891  34.9425 145.5794 0007745 127.0436 233.0992 15.40480636462910
FENGYUN 3D              
1 43010U 17072A   25106.89599723  .00000435  00000+0  22777-3 0  9990
2 43010  98.9577  70.0819 0001633 147.9810 212.1465 14.19610641384507
NOAA 20 (JPSS-1)        
1 43013U 17073A   25106.91794117  .00000355  00000+0  18914-3 0  9990
2 43013  98.7383  46.1950 0002236  84.9877 275.1555 14.19527166383996
GOES 17                 
1 43226U 18022A   25106.87054037 -.00000082  00000+0  00000+0 0  9997
2 43226   0.0223 297.8274 0002470 148.1787 328.2608  1.00272647 26145
FENGYUN 2H              
1 43491U 18050A   25106.90703012 -.00000119  00000+0  00000+0 0  9991
2 43491   1.9309  84.0549 0000190 145.2342  21.8783  1.00273055 25162
METOP-C                 
1 43689U 18087A   25106.86742127  .00000457  00000+0  22860-3 0  9991
2 43689  98.6780 167.9092 0000451  19.4549 340.6645 14.21515747334269
GEO-KOMPSAT-2A          
1 43823U 18100A   25106.91676072 -.00000334  00000+0  00000+0 0  9991
2 43823   0.0496  59.0124 0002371  11.7531 232.8355  1.00271802 23355
METEOR-M2 2             
1 44387U 19038A   25106.89364284  .00000448  00000+0  21404-3 0  9994
2 44387  98.8712  84.0582 0001815 128.9774 231.1567 14.24188904300619
ARKTIKA-M 1             
1 47719U 21016A   25106.31854710  .00000074  00000+0  00000+0 0  9990
2 47719  63.1424 115.5427 7077505 268.5563  16.8559  2.00605881 30222
FENGYUN 3E              
1 49008U 21062A   25106.93927530  .00000137  00000+0  85126-4 0  9990
2 49008  98.7433 110.3183 0000874 192.2522 167.8633 14.19859417196094
