[
  {
    "OBJECT_NAME": "CYGFM02",
    "OBJECT_ID": "2016-078C",
    "EPOCH": "2025-04-16T12:20:49.630848",
    "MEAN_MOTION": 15.4150931,
    "ECCENTRICITY": 0.0010192,
    "INCLINATION": 34.9433,
    "RA_OF_ASC_NODE": 145.4654,
    "ARG_OF_PERICENTER": 126.964,
    "MEAN_ANOMALY": 233.2014,
    "EPHEMERIS_TYPE": 0,
    "CLASSIFICATION_TYPE": "U",
    "NORAD_CAT_ID": 41886,
    "ELEMENT_SET_NO": 999,
    "REV_AT_EPOCH": 46287,
    "BSTAR": 0.00052342,
    "MEAN_MOTION_DOT": 0.00022649,
    "MEAN_MOTION_DDOT": 0
  },
  {
    "OBJECT_NAME": "CYGFM01",
    "OBJECT_ID": "2016-078D",
    "EPOCH": "2025-04-16T14:01:33.627936",
    "MEAN_MOTION": 15.39342095,
    "ECCENTRICITY": 0.0008659,
    "INCLINATION": 34.9432,
    "RA_OF_ASC_NODE": 167.9037,
    "ARG_OF_PERICENTER": 97.2531,
    "MEAN_ANOMALY": 262.9172,
    "EPHEMERIS_TYPE": 0,
    "CLASSIFICATION_TYPE": "U",
    "NORAD_CAT_ID": 41887,
    "ELEMENT_SET_NO": 999,
    "REV_AT_EPOCH": 46258,
    "BSTAR": 0.00052565,
    "MEAN_MOTION_DOT": 0.00021149,
    "MEAN_MOTION_DDOT": 0
  },
  {
    "OBJECT_NAME": "CYGFM08",
    "OBJECT_ID": "2016-078E",
    "EPOCH": "2025-04-16T12:51:37.883232",
    "MEAN_MOTION": 15.40169467,
    "ECCENTRICITY": 0.0010818,
    "INCLINATION": 34.9455,
    "RA_OF_ASC_NODE": 153.4914,
    "ARG_OF_PERICENTER": 121.9679,
    "MEAN_ANOMALY": 238.2093,
    "EPHEMERIS_TYPE": 0,
    "CLASSIFICATION_TYPE": "U",
    "NORAD_CAT_ID": 41888,
    "ELEMENT_SET_NO": 999,
    "REV_AT_EPOCH": 46278,
    "BSTAR": 0.00052163,
    "MEAN_MOTION_DOT": 0.00021587,
    "MEAN_MOTION_DDOT": 0
  },
  {
    "OBJECT_NAME": "CYGFM07",
    "OBJECT_ID": "2016-078G",
    "EPOCH": "2025-04-16T11:58:07.569408",
    "MEAN_MOTION": 15.40678732,
    "ECCENTRICITY": 0.0009138,
    "INCLINATION": 34.947,
    "RA_OF_ASC_NODE": 144.0424,
    "ARG_OF_PERICENTER": 141.5067,
    "MEAN_ANOMALY": 218.6306,
    "EPHEMERIS_TYPE": 0,
    "CLASSIFICATION_TYPE": "U",
    "NORAD_CAT_ID": 41890,
    "ELEMENT_SET_NO": 999,
    "REV_AT_EPOCH": 46278,
    "BSTAR": 0.00054358,
    "MEAN_MOTION_DOT": 0.00022872,
    "MEAN_MOTION_DDOT": 0
  },
  {
    "OBJECT_NAME": "CYGFM03",
    "OBJECT_ID": "2016-078H",
    "EPOCH": "2025-04-16T11:54:53.550432",
    "MEAN_MOTION": 15.40480636,
    "ECCENTRICITY": 0.0007745,
    "INCLINATION": 34.9425,
    "RA_OF_ASC_NODE": 145.5794,
    "ARG_OF_PERICENTER": 127.0436,
    "MEAN_ANOMALY": 233.0992,
    "EPHEMERIS_TYPE": 0,
    "CLASSIFICATION_TYPE": "U",
    "NORAD_CAT_ID": 41891,
    "ELEMENT_SET_NO": 999,
    "REV_AT_EPOCH": 46291,
    "BSTAR": 0.00053704,
    "MEAN_MOTION_DOT": 0.00022437,
    "MEAN_MOTION_DDOT": 0
  },
  {
    "OBJECT_NAME": "FENGYUN 3D",
    "OBJECT_ID": "2017-072A",
    "EPOCH": "2025-04-16T21:30:14.160672",
    "MEAN_MOTION": 14.19610641,
    "ECCENTRICITY": 0.0001633,
    "INCLINATION": 98.9577,
    "RA_OF_ASC_NODE": 70.0819,
    "ARG_OF_PERICENTER": 147.981,
    "MEAN_ANOMALY": 212.1465,
    "EPHEMERIS_TYPE": 0,
    "CLASSIFICATION_TYPE": "U",
    "NORAD_CAT_ID": 43010,
    "ELEMENT_SET_NO": 999,
    "REV_AT_EPOCH": 38450,
    "BSTAR": 0.00022777,
    "MEAN_MOTION_DOT": 4.35e-6,
    "MEAN_MOTION_DDOT": 0
  },
  {
    "OBJECT_NAME": "NOAA 20 (JPSS-1)",
    "OBJECT_ID": "2017-073A",
    "EPOCH": "2025-04-16T22:01:50.117088",
    "MEAN_MOTION": 14.19527166,
    "ECCENTRICITY": 0.0002236,
    "INCLINATION": 98.7383,
    "RA_OF_ASC_NODE": 46.195,
    "ARG_OF_PERICENTER": 84.9877,
    "MEAN_ANOMALY": 275.1555,
    "EPHEMERIS_TYPE": 0,
    "CLASSIFICATION_TYPE": "U",
    "NORAD_CAT_ID": 43013,
    "ELEMENT_SET_NO": 999,
    "REV_AT_EPOCH": 38399,
    "BSTAR": 0.00018914,
    "MEAN_MOTION_DOT": 3.55e-6,
    "MEAN_MOTION_DDOT": 0
  },
  {
    "OBJECT_NAME": "GOES 17",
    "OBJECT_ID": "2018-022A",
    "EPOCH": "2025-04-16T20:53:34.687968",
    "MEAN_MOTION": 1.00272647,
    "ECCENTRICITY": 0.000247,
    "INCLINATION": 0.0223,
    "RA_OF_ASC_NODE": 297.8274,
    "ARG_OF_PERICENTER": 148.1787,
    "MEAN_ANOMALY": 328.2608,
    "EPHEMERIS_TYPE": 0,
    "CLASSIFICATION_TYPE": "U",
    "NORAD_CAT_ID": 43226,
    "ELEMENT_SET_NO": 999,
    "REV_AT_EPOCH": 2614,
    "BSTAR": 0,
    "MEAN_MOTION_DOT": -8.2e-7,
    "MEAN_MOTION_DDOT": 0
  },
  {
    "OBJECT_NAME": "FENGYUN 2H",
    "OBJECT_ID": "2018-050A",
    "EPOCH": "2025-04-16T21:46:07.402368",
    "MEAN_MOTION": 1.00273055,
    "ECCENTRICITY": 1.9e-5,
    "INCLINATION": 1.9309,
    "RA_OF_ASC_NODE": 84.0549,
    "ARG_OF_PERICENTER": 145.2342,
    "MEAN_ANOMALY": 21.8783,
    "EPHEMERIS_TYPE": 0,
    "CLASSIFICATION_TYPE": "U",
    "NORAD_CAT_ID": 43491,
    "ELEMENT_SET_NO": 999,
    "REV_AT_EPOCH": 2516,
    "BSTAR": 0,
    "MEAN_MOTION_DOT": -1.19e-6,
    "MEAN_MOTION_DDOT": 0
  },
  {
    "OBJECT_NAME": "METOP-C",
    "OBJECT_ID": "2018-087A",
    "EPOCH": "2025-04-16T20:49:05.197728",
    "MEAN_MOTION": 14.21515747,
    "ECCENTRICITY": 4.51e-5,
    "INCLINATION": 98.678,
    "RA_OF_ASC_NODE": 167.9092,
    "ARG_OF_PERICENTER": 19.4549,
    "MEAN_ANOMALY": 340.6645,
    "EPHEMERIS_TYPE": 0,
    "CLASSIFICATION_TYPE": "U",
    "NORAD_CAT_ID": 43689,
    "ELEMENT_SET_NO": 999,
    "REV_AT_EPOCH": 33426,
    "BSTAR": 0.0002286,
    "MEAN_MOTION_DOT": 4.57e-6,
    "MEAN_MOTION_DDOT": 0
  },
  {
    "OBJECT_NAME": "GEO-KOMPSAT-2A",
    "OBJECT_ID": "2018-100A",
    "EPOCH": "2025-04-16T22:00:08.126208",
    "MEAN_MOTION": 1.00271802,
    "ECCENTRICITY": 0.0002371,
    "INCLINATION": 0.0496,
    "RA_OF_ASC_NODE": 59.0124,
    "ARG_OF_PERICENTER": 11.7531,
    "MEAN_ANOMALY": 232.8355,
    "EPHEMERIS_TYPE": 0,
    "CLASSIFICATION_TYPE": "U",
    "NORAD_CAT_ID": 43823,
    "ELEMENT_SET_NO": 999,
    "REV_AT_EPOCH": 2335,
    "BSTAR": 0,
    "MEAN_MOTION_DOT": -3.34e-6,
    "MEAN_MOTION_DDOT": 0
  },
  {
    "OBJECT_NAME": "METEOR-M2 2",
    "OBJECT_ID": "2019-038A",
    "EPOCH": "2025-04-16T21:26:50.741376",
    "MEAN_MOTION": 14.24188904,
    "ECCENTRICITY": 0.0001815,
    "INCLINATION": 98.8712,
    "RA_OF_ASC_NODE": 84.0582,
    "ARG_OF_PERICENTER": 128.9774,
    "MEAN_ANOMALY": 231.1567,
    "EPHEMERIS_TYPE": 0,
    "CLASSIFICATION_TYPE": "U",
    "NORAD_CAT_ID": 44387,
    "ELEMENT_SET_NO": 999,
    "REV_AT_EPOCH": 30061,
    "BSTAR": 0.00021404,
    "MEAN_MOTION_DOT": 4.48e-6,
    "MEAN_MOTION_DDOT": 0
  },
  {
    "OBJECT_NAME": "ARKTIKA-M 1",
    "OBJECT_ID": "2021-016A",
    "EPOCH": "2025-04-16T07:38:42.469440",
    "MEAN_MOTION": 2.00605881,
    "ECCENTRICITY": 0.7077505,
    "INCLINATION": 63.1424,
    "RA_OF_ASC_NODE": 115.5427,
    "ARG_OF_PERICENTER": 268.5563,
    "MEAN_ANOMALY": 16.8559,
    "EPHEMERIS_TYPE": 0,
    "CLASSIFICATION_TYPE": "U",
    "NORAD_CAT_ID": 47719,
    "ELEMENT_SET_NO": 999,
    "REV_AT_EPOCH": 3022,
    "BSTAR": 0,
    "MEAN_MOTION_DOT": 7.4e-7,
    "MEAN_MOTION_DDOT": 0
  },
  {
    "OBJECT_NAME": "FENGYUN 3E",
    "OBJECT_ID": "2021-062A",
    "EPOCH": "2025-04-16T22:32:33.385920",
    "MEAN_MOTION": 14.19859417,
    "ECCENTRICITY": 8.74e-5,
    "INCLINATION": 98.7433,
    "RA_OF_ASC_NODE": 110.3183,
    "ARG_OF_PERICENTER": 192.2522,
    "MEAN_ANOMALY": 167.8633,
    "EPHEMERIS_TYPE": 0,
    "CLASSIFICATION_TYPE": "U",
    "NORAD_CAT_ID": 49008,
    "ELEMENT_SET_NO": 999,
    "REV_AT_EPOCH": 19609,
    "BSTAR": 8.5126e-5,
    "MEAN_MOTION_DOT": 1.37e-6,
    "MEAN_MOTION_DDOT": 0
  }
]
